{"type": "FeatureCollection", "features": [ {"type": "Feature", "properties": {"norad_id": 30759, "name": "FENGYUN 1C DEB", "group": "fengyun-1c-debris", "lat": -72.43285424321833, "lon": -110.97864071111553, "alt_km": 719.2000660644808, "timestamp": "2025-12-17T17:50:19.529545+00:00", "meta": {"OBJECT_NAME": "FENGYUN 1C DEB", "OBJECT_ID": "1999-025ATV", "EPOCH": "2025-12-17T06:53:13.936704", "MEAN_MOTION": 14.54605685, "ECCENTRICITY": 0.00090083, "INCLINATION": 99.2573, "RA_OF_ASC_NODE": 99.526, "ARG_OF_PERICENTER": 154.3648, "MEAN_ANOMALY": 232.3403, "EPHEMERIS_TYPE": 0, "CLASSIFICATION_TYPE": "U", "NORAD_CAT_ID": 30759, "ELEMENT_SET_NO": 999, "REV_AT_EPOCH": 97721, "BSTAR": 0.0019280981, "MEAN_MOTION_DOT": 8.193e-05, "MEAN_MOTION_DDOT": 0}, "tle": {"line1": "1 30759U 99025ATV 25351.28696686  .00008193  00000+0  19281-2 0  9999", "line2": "2 30759  99.2573  99.5260 0009008 154.3648 232.3403 14.54605685977217"}}, "geometry": {"type": "Point", "coordinates": [-110.97864071111553, -72.43285424321833]}}, {"type": "Feature", "properties": {"norad_id": 30760, "name": "FENGYUN 1C DEB", "group": "fengyun-1c-debris", "lat": 54.48354844435213, "lon": -179.14557212095508, "alt_km": 905.2944679213488, "timestamp": "2025-12-17T17:50:19.529557+00:00", "meta": {"OBJECT_NAME": "FENGYUN 1C DEB", "OBJECT_ID": "1999-025ATW", "EPOCH": "2025-12-16T22:27:00.927360", "MEAN_MOTION": 14.05183009, "ECCENTRICITY": 0.00526331, "INCLINATION": 98.8221, "RA_OF_ASC_NODE": 347.5011, "ARG_OF_PERICENTER": 331.6459, "MEAN_ANOMALY": 28.1846, "EPHEMERIS_TYPE": 0, "CLASSIFICATION_TYPE": "U", "NORAD_CAT_ID": 30760, "ELEMENT_SET_NO": 999, "REV_AT_EPOCH": 96281, "BSTAR": 0.00030613851, "MEAN_MOTION_DOT": 4.57e-06, "MEAN_MOTION_DDOT": 0}, "tle": {"line1": "1 30760U 99025ATW 25350.93542740  .00000457  00000+0  30614-3 0  9992", "line2": "2 30760  98.8221 347.5011 0052633 331.6459  28.1846 14.05183009962815"}}, "geometry": {"type": "Point", "coordinates": [-179.14557212095508, 54.48354844435213]}}, {"type": "Feature", "properties": {"norad_id": 30761, "name": "FENGYUN 1C DEB", "group": "fengyun-1c-debris", "lat": 63.58402271629131, "lon": -100.50005859112667, "alt_km": 801.1164346536889, "timestamp": "2025-12-17T17:50:19.529567+00:00", "meta": {"OBJECT_NAME": "FENGYUN 1C DEB", "OBJECT_ID": "1999-025ATX", "EPOCH": "2025-12-16T18:07:18.829920", "MEAN_MOTION": 14.3579967, "ECCENTRICITY": 0.00841703, "INCLINATION": 98.9656, "RA_OF_ASC_NODE": 277.0032, "ARG_OF_PERICENTER": 302.0967, "MEAN_ANOMALY": 57.2066, "EPHEMERIS_TYPE": 0, "CLASSIFICATION_TYPE": "U", "NORAD_CAT_ID": 30761, "ELEMENT_SET_NO": 999, "REV_AT_EPOCH": 97799, "BSTAR": 0.00075865762, "MEAN_MOTION_DOT": 2.237e-05, "MEAN_MOTION_DDOT": 0}, "tle": {"line1": "1 30761U 99025ATX 25350.75507905  .00002237  00000+0  75866-3 0  9993", "line2": "2 30761  98.9656 277.0032 0084170 302.0967  57.2066 14.35799670977998"}}, "geometry": {"type": "Point", "coordinates": [-100.50005859112667, 63.58402271629131]}}, {"type": "Feature", "properties": {"norad_id": 30762, "name": "FENGYUN 1C DEB", "group": "fengyun-1c-debris", "lat": -77.10926989247916, "lon": 25.424328744813447, "alt_km": 764.0373312723314, "timestamp": "2025-12-17T17:50:19.529577+00:00", "meta": {"OBJECT_NAME": "FENGYUN 1C DEB", "OBJECT_ID": "1999-025ATY", "EPOCH": "2025-12-17T06:15:29.485152", "MEAN_MOTION": 13.9810081, "ECCENTRICITY": 0.01974186, "INCLINATION": 98.8748, "RA_OF_ASC_NODE": 341.9025, "ARG_OF_PERICENTER": 282.5795, "MEAN_ANOMALY": 89.609, "EPHEMERIS_TYPE": 0, "CLASSIFICATION_TYPE": "U", "NORAD_CAT_ID": 30762, "ELEMENT_SET_NO": 999, "REV_AT_EPOCH": 95701, "BSTAR": 0.00055253902, "MEAN_MOTION_DOT": 8.83e-06, "MEAN_MOTION_DDOT": 0}, "tle": {"line1": "1 30762U 99025ATY 25351.26075793  .00000883  00000+0  55254-3 0  9990", "line2": "2 30762  98.8748 341.9025 0197418 282.5795  89.6090 13.98100810957011"}}, "geometry": {"type": "Point", "coordinates": [25.424328744813447, -77.10926989247916]}}, {"type": "Feature", "properties": {"norad_id": 30763, "name": "FENGYUN 1C DEB", "group": "fengyun-1c-debris", "lat": -31.118196816163895, "lon": -121.94548030728124, "alt_km": 682.604665713623, "timestamp": "2025-12-17T17:50:19.529588+00:00", "meta": {"OBJECT_NAME": "FENGYUN 1C DEB", "OBJECT_ID": "1999-025ATZ", "EPOCH": "2025-12-17T03:58:26.910336", "MEAN_MOTION": 14.61276312, "ECCENTRICITY": 0.00237714, "INCLINATION": 98.8933, "RA_OF_ASC_NODE": 62.8579, "ARG_OF_PERICENTER": 255.7653, "MEAN_ANOMALY": 158.596, "EPHEMERIS_TYPE": 0, "CLASSIFICATION_TYPE": "U", "NORAD_CAT_ID": 30763, "ELEMENT_SET_NO": 999, "REV_AT_EPOCH": 97209, "BSTAR": 0.0032832141, "MEAN_MOTION_DOT": 0.00016248, "MEAN_MOTION_DDOT": 0}, "tle": {"line1": "1 30763U 99025ATZ 25351.16558924  .00016248  00000+0  32832-2 0  9990", "line2": "2 30763  98.8933  62.8579 0023771 255.7653 158.5960 14.61276312972095"}}, "geometry": {"type": "Point", "coordinates": [-121.94548030728124, -31.118196816163895]}}, {"type": "Feature", "properties": {"norad_id": 30764, "name": "FENGYUN 1C DEB", "group": "fengyun-1c-debris", "lat": -45.92846313170236, "lon": 134.11689101502475, "alt_km": 469.3199328529363, "timestamp": "2025-12-17T17:50:19.529598+00:00", "meta": {"OBJECT_NAME": "FENGYUN 1C DEB", "OBJECT_ID": "1999-025AUA", "EPOCH": "2025-12-17T04:17:40.088544", "MEAN_MOTION": 15.29356577, "ECCENTRICITY": 0.00763619, "INCLINATION": 98.7784, "RA_OF_ASC_NODE": 322.6364, "ARG_OF_PERICENTER": 154.8291, "MEAN_ANOMALY": 205.6698, "EPHEMERIS_TYPE": 0, "CLASSIFICATION_TYPE": "U", "NORAD_CAT_ID": 30764, "ELEMENT_SET_NO": 999, "REV_AT_EPOCH": 1290, "BSTAR": 0.0008110405, "MEAN_MOTION_DOT": 0.00025186, "MEAN_MOTION_DDOT": 0}, "tle": {"line1": "1 30764U 99025AUA 25351.17893621  .00025186  00000+0  81104-3 0  9996", "line2": "2 30764  98.7784 322.6364 0076361 154.8291 205.6698 15.29356577 12902"}}, "geometry": {"type": "Point", "coordinates": [134.11689101502475, -45.92846313170236]}}, {"type": "Feature", "properties": {"norad_id": 30765, "name": "FENGYUN 1C DEB", "group": "fengyun-1c-debris", "lat": 50.21257069657377, "lon": 26.958491305522234, "alt_km": 878.4244284390961, "timestamp": "2025-12-17T17:50:19.529608+00:00", "meta": {"OBJECT_NAME": "FENGYUN 1C DEB", "OBJECT_ID": "1999-025AUB", "EPOCH": "2025-12-17T02:27:45.520416", "MEAN_MOTION": 14.14725187, "ECCENTRICITY": 0.00684831, "INCLINATION": 98.788, "RA_OF_ASC_NODE": 37.0327, "ARG_OF_PERICENTER": 196.7838, "MEAN_ANOMALY": 193.6641, "EPHEMERIS_TYPE": 0, "CLASSIFICATION_TYPE": "U", "NORAD_CAT_ID": 30765, "ELEMENT_SET_NO": 999, "REV_AT_EPOCH": 96884, "BSTAR": 0.00060028772, "MEAN_MOTION_DOT": 1.139e-05, "MEAN_MOTION_DDOT": 0}, "tle": {"line1": "1 30765U 99025AUB 25351.10261019  .00001139  00000+0  60029-3 0  9995", "line2": "2 30765  98.7880  37.0327 0068483 196.7838 193.6641 14.14725187968841"}}, "geometry": {"type": "Point", "coordinates": [26.958491305522234, 50.21257069657377]}}, {"type": "Feature", "properties": {"norad_id": 30766, "name": "FENGYUN 1C DEB", "group": "fengyun-1c-debris", "lat": -16.068522266954545, "lon": 169.4300287343121, "alt_km": 908.870722054493, "timestamp": "2025-12-17T17:50:19.529618+00:00", "meta": {"OBJECT_NAME": "FENGYUN 1C DEB", "OBJECT_ID": "1999-025AUC", "EPOCH": "2025-12-15T07:04:11.928864", "MEAN_MOTION": 14.09535307, "ECCENTRICITY": 0.00836782, "INCLINATION": 98.6724, "RA_OF_ASC_NODE": 349.591, "ARG_OF_PERICENTER": 67.2731, "MEAN_ANOMALY": 309.6105, "EPHEMERIS_TYPE": 0, "CLASSIFICATION_TYPE": "U", "NORAD_CAT_ID": 30766, "ELEMENT_SET_NO": 999, "REV_AT_EPOCH": 62833, "BSTAR": 0.00078621277, "MEAN_MOTION_DOT": 1.379e-05, "MEAN_MOTION_DDOT": 0}, "tle": {"line1": "1 30766U 99025AUC 25349.29458251  .00001379  00000+0  78621-3 0  9992", "line2": "2 30766  98.6724 349.5910 0083678  67.2731 309.6105 14.09535307628332"}}, "geometry": {"type": "Point", "coordinates": [169.4300287343121, -16.068522266954545]}}, {"type": "Feature", "properties": {"norad_id": 30768, "name": "FENGYUN 1C DEB", "group": "fengyun-1c-debris", "lat": 62.76342914727656, "lon": 64.44494190649036, "alt_km": 709.5663074452304, "timestamp": "2025-12-17T17:50:19.529629+00:00", "meta": {"OBJECT_NAME": "FENGYUN 1C DEB", "OBJECT_ID": "1999-025AUE", "EPOCH": "2025-12-15T18:08:42.191232", "MEAN_MOTION": 14.47948022, "ECCENTRICITY": 0.00250529, "INCLINATION": 98.6181, "RA_OF_ASC_NODE": 79.5553, "ARG_OF_PERICENTER": 91.578, "MEAN_ANOMALY": 59.873, "EPHEMERIS_TYPE": 0, "CLASSIFICATION_TYPE": "U", "NORAD_CAT_ID": 30768, "ELEMENT_SET_NO": 999, "REV_AT_EPOCH": 97914, "BSTAR": 0.0013597034, "MEAN_MOTION_DOT": 5.02e-05, "MEAN_MOTION_DDOT": 0}, "tle": {"line1": "1 30768U 99025AUE 25349.75604388  .00005020  00000+0  13597-2 0  9996", "line2": "2 30768  98.6181  79.5553 0025052  91.5780  59.8730 14.47948022979140"}}, "geometry": {"type": "Point", "coordinates": [64.44494190649036, 62.76342914727656]}}, {"type": "Feature", "properties": {"norad_id": 30770, "name": "FENGYUN 1C DEB", "group": "fengyun-1c-debris", "lat": 80.80299824553495, "lon": -72.51256820409687, "alt_km": 841.7145908013836, "timestamp": "2025-12-17T17:50:19.529639+00:00", "meta": {"OBJECT_NAME": "FENGYUN 1C DEB", "OBJECT_ID": "1999-025AUG", "EPOCH": "2025-12-17T00:47:07.452960", "MEAN_MOTION": 14.15689097, "ECCENTRICITY": 0.00127628, "INCLINATION": 98.6543, "RA_OF_ASC_NODE": 356.9589, "ARG_OF_PERICENTER": 272.9024, "MEAN_ANOMALY": 154.6812, "EPHEMERIS_TYPE": 0, "CLASSIFICATION_TYPE": "U", "NORAD_CAT_ID": 30770, "ELEMENT_SET_NO": 999, "REV_AT_EPOCH": 96968, "BSTAR": 0.00026925736, "MEAN_MOTION_DOT": 4.85e-06, "MEAN_MOTION_DDOT": 0}, "tle": {"line1": "1 30770U 99025AUG 25351.03272515  .00000485  00000+0  26926-3 0  9997", "line2": "2 30770  98.6543 356.9589 0012762 272.9024 154.6812 14.15689097969688"}}, "geometry": {"type": "Point", "coordinates": [-72.51256820409687, 80.80299824553495]}}]}